IRIDIUM 136             
1 42962U 17061H   24116.59030756  .00000428  00000+0  14579-3 0  9999
2 42962  86.4002 352.3104 0002432  85.5833 274.5640 14.34219721342669
